NORAD_CAT_ID,OBJECT_NAME,OBJECT_TYPE,EPOCH,MEAN_MOTION,ECCENTRICITY,INCLINATION,RA_OF_ASC_NODE,ARG_OF_PERICENTER,MEAN_ANOMALY,BSTAR,MEAN_MOTION_DOT,MEAN_MOTION_DDOT,TLE_LINE0,TLE_LINE1,TLE_LINE2,SEMIMAJOR_AXIS,PERIOD,APOGEE,PERIGEE,DECAYED
53572.0,STARLINK-4555,PAYLOAD,2023-04-21 05:35:32,15.0883694,0.0001572,53.2167,102.9413,101.9673,258.1495,3.1237e-05,2.09e-06,0.0,0 STARLINK-4555,1 53572U 22101AX  23111.23301331  .00000209  00000-0  31237-4 0  9993,2 53572  53.2167 102.9413 0001572 101.9673 258.1495 15.08836940 37413,6917.89,95.438,540.842,538.667,0.0
53572.0,STARLINK-4555,PAYLOAD,2023-04-21 16:43:14,15.08842869,0.0001536,53.2165,100.8596,113.5708,246.5446,-5.4958e-05,-1.163e-05,0.0,0 STARLINK-4555,1 53572U 22101AX  23111.69669296 -.00001163  00000-0 -54958-4 0  9997,2 53572  53.2165 100.8596 0001536 113.5708 246.5446 15.08842869 37489,6917.872,95.437,540.799,538.674,0.0
53572.0,STARLINK-4555,PAYLOAD,2023-04-22 05:26:18,15.08847047,0.0001461,53.2161,98.4802,107.0646,253.0507,9.5878e-05,1.239e-05,0.0,0 STARLINK-4555,1 53572U 22101AX  23112.22660666  .00001239  00000-0  95878-4 0  9997,2 53572  53.2161  98.4802 0001461 107.0646 253.0507 15.08847047 37566,6917.859,95.437,540.735,538.713,0.0
53572.0,STARLINK-4555,PAYLOAD,2023-04-22 16:34:00,15.08844402,0.0001263,53.2144,96.4005,108.0393,252.0737,5.4996e-05,5.88e-06,0.0,0 STARLINK-4555,1 53572U 22101AX  23112.69028793  .00000588  00000-0  54996-4 0  9999,2 53572  53.2144  96.4005 0001263 108.0393 252.0737 15.08844402 37634,6917.867,95.437,540.606,538.858,0.0
53572.0,STARLINK-4555,PAYLOAD,2023-04-23 08:27:52,15.08838462,0.000127,53.2146,93.4265,112.154,247.9587,6.6897e-05,7.77e-06,0.0,0 STARLINK-4555,1 53572U 22101AX  23113.35269207  .00000777  00000-0  66897-4 0  9993,2 53572  53.2146  93.4265 0001270 112.1540 247.9587 15.08838462 37735,6917.885,95.438,540.629,538.872,0.0
53572.0,STARLINK-4555,PAYLOAD,2023-04-24 08:18:38,15.088555,0.0001523,53.2175,88.9637,99.7772,260.3392,5.6066e-05,6.05e-06,0.0,0 STARLINK-4555,1 53572U 22101AX  23114.34628168  .00000605  00000-0  56066-4 0  9995,2 53572  53.2175  88.9637 0001523  99.7772 260.3392 15.08855500 37888,6917.833,95.437,540.752,538.644,0.0
53572.0,STARLINK-4555,PAYLOAD,2023-04-25 06:34:02,15.08851926,0.0001339,53.2172,84.8006,105.0772,255.0369,0.00011298,1.511e-05,0.0,0 STARLINK-4555,1 53572U 22101AX  23115.27363586  .00001511  00000-0  11298-3 0  9992,2 53572  53.2172  84.8006 0001339 105.0772 255.0369 15.08851926 38026,6917.844,95.437,540.635,538.783,0.0
53572.0,STARLINK-4555,PAYLOAD,2023-04-26 08:00:15,15.08824987,0.0001136,53.2171,80.0444,101.2619,258.85,-0.00020305,-3.517e-05,0.0,0 STARLINK-4555,1 53572U 22101AX  23116.33350966 -.00003517  00000-0 -20305-3 0  9997,2 53572  53.2171  80.0444 0001136 101.2619 258.8500 15.08824987 38184,6917.926,95.439,540.577,539.005,0.0
53572.0,STARLINK-4555,PAYLOAD,2023-04-26 14:21:47,15.08826021,0.0001143,53.2172,78.8549,101.3896,258.7225,-0.00016704,-2.944e-05,0.0,0 STARLINK-4555,1 53572U 22101AX  23116.59847018 -.00002944  00000-0 -16704-3 0  9995,2 53572  53.2172  78.8549 0001143 101.3896 258.7225 15.08826021 38221,6917.923,95.438,540.579,538.997,0.0
53572.0,STARLINK-4555,PAYLOAD,2023-04-27 06:15:38,15.08835782,0.0001041,53.2174,75.8813,104.4889,255.6218,-5.3919e-05,-1.146e-05,0.0,0 STARLINK-4555,1 53572U 22101AX  23117.26086632 -.00001146  00000-0 -53919-4 0  9990,2 53572  53.2174  75.8813 0001041 104.4889 255.6218 15.08835782 38320,6917.893,95.438,540.478,539.038,0.0
53572.0,STARLINK-4555,PAYLOAD,2023-04-27 20:34:06,15.08835994,8.95e-05,53.218,73.2048,100.7694,259.3399,0.00026914,3.998e-05,0.0,0 STARLINK-4555,1 53572U 22101AX  23117.85701920  .00003998  00000-0  26914-3 0  9998,2 53572  53.2180  73.2048 0000895 100.7694 259.3399 15.08835994 38414,6917.893,95.438,540.377,539.138,0.0
53572.0,STARLINK-4555,PAYLOAD,2023-04-28 04:31:01,15.08846163,9.75e-05,53.2176,71.7185,99.2991,260.8112,0.00036063,5.457e-05,0.0,0 STARLINK-4555,1 53572U 22101AX  23118.18821364  .00005457  00000-0  36063-3 0  9998,2 53572  53.2176  71.7185 0000975  99.2991 260.8112 15.08846163 38460,6917.862,95.437,540.401,539.052,0.0
53572.0,STARLINK-4555,PAYLOAD,2023-04-28 06:06:24,15.08850709,9.81e-05,53.2176,71.4209,100.4005,259.7098,0.00041179,6.274e-05,0.0,0 STARLINK-4555,1 53572U 22101AX  23118.25445136  .00006274  00000-0  41179-3 0  9997,2 53572  53.2176  71.4209 0000981 100.4005 259.7098 15.08850709 38474,6917.848,95.437,540.391,539.034,0.0
53572.0,STARLINK-4555,PAYLOAD,2023-04-28 14:03:21,15.08841714,9.9e-05,53.2176,69.9345,94.7289,265.3816,0.00032057,4.818e-05,0.0,0 STARLINK-4555,1 53572U 22101AX  23118.58566238  .00004818  00000-0  32057-3 0  9997,2 53572  53.2176  69.9345 0000990  94.7289 265.3816 15.08841714 38529,6917.875,95.437,540.425,539.055,0.0
53572.0,STARLINK-4555,PAYLOAD,2023-04-29 04:21:48,15.08851215,0.0001054,53.2168,67.2578,95.8629,264.2484,5.3186e-05,5.59e-06,0.0,0 STARLINK-4555,1 53572U 22101AX  23119.18181711  .00000559  00000-0  53186-4 0  9998,2 53572  53.2168  67.2578 0001054  95.8629 264.2484 15.08851215 38617,6917.846,95.437,540.44,538.982,0.0
53572.0,STARLINK-4555,PAYLOAD,2023-04-29 20:15:41,15.08831052,0.000122,53.2182,64.2837,103.7461,256.3667,-0.0002882,-4.87e-05,0.0,0 STARLINK-4555,1 53572U 22101AX  23119.84422992 -.00004870  00000-0 -28820-3 0  9998,2 53572  53.2182  64.2837 0001220 103.7461 256.3667 15.08831052 38719,6917.908,95.438,540.617,538.929,0.0
53572.0,STARLINK-4555,PAYLOAD,2023-04-30 05:48:00,15.08828746,0.0001296,53.2179,62.4993,98.6733,261.4406,-0.00021768,-3.749e-05,0.0,0 STARLINK-4555,1 53572U 22101AX  23120.24167453 -.00003749  00000-0 -21768-3 0  9990,2 53572  53.2179  62.4993 0001296  98.6733 261.4406 15.08828746 38775,6917.915,95.438,540.676,538.883,0.0
53572.0,STARLINK-4555,PAYLOAD,2023-04-30 20:06:28,15.0883559,0.0001157,53.2185,59.8233,103.2563,256.8558,0.00016806,2.388e-05,0.0,0 STARLINK-4555,1 53572U 22101AX  23120.83783475  .00002388  00000-0  16806-3 0  9996,2 53572  53.2185  59.8233 0001157 103.2563 256.8558 15.08835590 38860,6917.894,95.438,540.559,538.958,0.0
53572.0,STARLINK-4555,PAYLOAD,2023-05-01 05:38:47,15.08844075,0.0001278,53.2176,58.0439,74.002,286.1112,0.00040606,6.181e-05,0.0,0 STARLINK-4555,1 53572U 22101AX  23121.23527499  .00006181  00000-0  40606-3 0  9993,2 53572  53.2176  58.0439 0001278  74.0020 286.1112 15.08844075 38923,6917.868,95.437,540.617,538.849,0.0
53572.0,STARLINK-4555,PAYLOAD,2023-05-02 05:29:35,15.08849354,0.00015,53.2183,53.579,103.9262,256.1897,0.00052619,8.098e-05,0.0,0 STARLINK-4555,1 53572U 22101AX  23122.22888052  .00008098  00000-0  52619-3 0  9994,2 53572  53.2183  53.5790 0001500 103.9262 256.1897 15.08849354 39078,6917.852,95.437,540.754,538.679,0.0
53572.0,STARLINK-4555,PAYLOAD,2023-05-03 02:09:34,15.08878827,0.0001368,53.2181,49.7142,100.1558,259.9589,0.001023,0.00016048,0.0,0 STARLINK-4555,1 53572U 22101AX  23123.08998672  .00016048  00000-0  10230-2 0  9995,2 53572  53.2181  49.7142 0001368 100.1558 259.9589 15.08878827 39204,6917.762,95.435,540.573,538.68,0.0
53572.0,STARLINK-4555,PAYLOAD,2023-05-03 11:41:53,15.08872327,0.0001114,53.2181,47.9303,98.5013,261.6106,0.00038232,5.807e-05,0.0,0 STARLINK-4555,1 53572U 22101AX  23123.48742036  .00005807  00000-0  38232-3 0  9994,2 53572  53.2181  47.9303 0001114  98.5013 261.6106 15.08872327 39268,6917.782,95.436,540.417,538.876,0.0
53572.0,STARLINK-4555,PAYLOAD,2023-05-03 18:03:25,15.08861116,0.000225,53.2182,46.7406,99.5119,260.6128,0.00011101,1.48e-05,0.0,0 STARLINK-4555,1 53572U 22101AX  23123.75238200  .00001480  00000-0  11101-3 0  9996,2 53572  53.2182  46.7406 0002250  99.5119 260.6128 15.08861116 39302,6917.816,95.436,541.237,538.124,0.0
53572.0,STARLINK-4555,PAYLOAD,2023-05-04 02:00:21,15.08851137,0.0001229,53.2179,45.255,98.4241,261.6891,0.00014346,1.997e-05,0.0,0 STARLINK-4555,1 53572U 22101AX  23124.08358065  .00001997  00000-0  14346-3 0  9992,2 53572  53.2179  45.2550 0001229  98.4241 261.6891 15.08851137 39356,6917.846,95.437,540.562,538.861,0.0
53572.0,STARLINK-4555,PAYLOAD,2023-05-04 11:32:40,15.08846875,0.0001195,53.2175,43.4712,94.6574,265.4555,0.00056747,8.757e-05,0.0,0 STARLINK-4555,1 53572U 22101AX  23124.48102232  .00008757  00000-0  56747-3 0  9991,2 53572  53.2175  43.4712 0001195  94.6574 265.4555 15.08846875 39410,6917.859,95.437,540.551,538.898,0.0
53572.0,STARLINK-4555,PAYLOAD,2023-05-05 03:26:31,15.08855286,0.0001271,53.2182,40.4985,94.9318,265.1819,0.00058512,9.04e-05,0.0,0 STARLINK-4555,1 53572U 22101AX  23125.14341892  .00009040  00000-0  58512-3 0  9990,2 53572  53.2182  40.4985 0001271  94.9318 265.1819 15.08855286 39518,6917.834,95.437,540.578,538.819,0.0
53572.0,STARLINK-4555,PAYLOAD,2023-05-06 01:41:55,15.08845304,9.34e-05,53.2172,36.3328,102.9586,257.151,0.00032062,4.819e-05,0.0,0 STARLINK-4555,1 53572U 22101AX  23126.07078177  .00004819  00000-0  32062-3 0  9997,2 53572  53.2172  36.3328 0000934 102.9586 257.1510 15.08845304 39658,6917.864,95.437,540.375,539.083,0.0
53572.0,STARLINK-4555,PAYLOAD,2023-05-07 03:08:05,15.08865572,0.0001011,53.2171,31.5757,103.2842,256.8263,0.0010751,0.00016876,0.0,0 STARLINK-4555,1 53572U 22101AX  23127.13061764  .00016876  00000-0  10751-2 0  9995,2 53572  53.2171  31.5757 0001011 103.2842 256.8263 15.08865572 39814,6917.802,95.436,540.367,538.968,0.0
53572.0,STARLINK-4555,PAYLOAD,2023-05-07 20:37:20,15.08842267,0.0001262,53.2171,28.3045,91.4986,268.6151,0.00023674,3.482e-05,0.0,0 STARLINK-4555,1 53572U 22101AX  23127.85926555  .00003482  00000-0  23674-3 0  9990,2 53572  53.2171  28.3045 0001262  91.4986 268.6151 15.08842267 39928,6917.873,95.437,540.611,538.865,0.0
53572.0,STARLINK-4555,PAYLOAD,2023-05-07 22:12:43,15.08843925,0.0001425,53.2173,28.0091,76.9907,283.1244,0.00048871,7.499e-05,0.0,0 STARLINK-4555,1 53572U 22101AX  23127.92550663  .00007499  00000-0  48871-3 0  9999,2 53572  53.2173  28.0091 0001425  76.9907 283.1244 15.08843925 39938,6917.868,95.437,540.719,538.748,0.0
